     2.100          NAVIGATION                              RINEX VERSION / TYPE
fic2rin                                 01/28/2018 00:07:22 PGM / RUN BY / DATE
                                                            END OF HEADER
30 18  1 27  4  0  0.0  .109034590423D-03 -.329691829393D-11  .000000000000D+00
     .150000000000D+02  .108750000000D+03  .468019494891D-08  .987943893772D-01
     .563822686672D-05  .306323368568D-02  .935606658459D-05  .515358544731D+04
     .532800000000D+06  .763684511185D-07  .269537687596D+01  .558793544769D-08
     .945548562944D+00  .191062500000D+03 -.310987548220D+01 -.822891419588D-08
     .692886004340D-10  .100000000000D+01  .198500000000D+04  .000000000000D+00
     .240000000000D+01  .000000000000D+00  .372529029846D-08  .150000000000D+02
     .525606000000D+06  .400000000000D+01
 1 18  1 27  3 59 44.0 -.255769118667D-04 -.193267624127D-11  .000000000000D+00
     .230000000000D+02 -.371250000000D+02  .424981987920D-08  .628422522835D+00
    -.180862843990D-05  .729354785290D-02  .103563070297D-04  .515367943001D+04
     .532784000000D+06 -.577419996262D-07 -.495240551408D+00  .143423676491D-06
     .970206503601D+00  .183156250000D+03  .617212826740D+00 -.794925969000D-08
     .227866634417D-09  .100000000000D+01  .198500000000D+04  .000000000000D+00
     .240000000000D+01  .000000000000D+00  .558793544769D-08  .230000000000D+02
     .528426000000D+06  .400000000000D+01
15 18  1 27  3 59 44.0 -.357251148671D-03  .113686837722D-12  .000000000000D+00
     .170000000000D+02 -.230312500000D+02  .544344102688D-08  .195780523209D+01
    -.122003257275D-05  .101427625632D-01  .858120620251D-05  .515367791176D+04
     .532784000000D+06 -.193715095520D-06  .151402678570D+01 -.763684511185D-07
     .928087128863D+00  .199531250000D+03  .664478413736D+00 -.847106713966D-08
    -.458233372974D-09  .100000000000D+01  .198500000000D+04  .000000000000D+00
     .240000000000D+01  .000000000000D+00 -.107102096081D-07  .170000000000D+02
     .528456000000D+06  .400000000000D+01
29 18  1 27  3 59 44.0  .505333766341D-03 -.545696821064D-11  .000000000000D+00
     .140000000000D+02 -.943437500000D+02  .417195949314D-08 -.202900161046D+01
    -.478699803352D-05  .462885713205D-03  .597909092903D-05  .515374579239D+04
     .532784000000D+06  .204890966415D-07 -.148842106139D+01 -.353902578354D-07
     .982893793769D+00  .278500000000D+03  .724466841272D+00 -.800033324599D-08
    -.169292766009D-09  .100000000000D+01  .198500000000D+04  .000000000000D+00
     .240000000000D+01  .000000000000D+00 -.102445483208D-07  .140000000000D+02
     .528456000000D+06  .400000000000D+01
16 18  1 27  3 59 44.0  .333879143000D-04 -.682121026330D-12  .000000000000D+00
     .140000000000D+02  .375937500000D+02  .416553065393D-08 -.255106833291D+01
     .176951289177D-05  .976499309763D-02  .333972275257D-05  .515357580185D+04
     .532784000000D+06  .931322574615D-08 -.251490374720D+01 -.244006514549D-06
     .988224488774D+00  .331500000000D+03  .459392482649D+00 -.804783522464D-08
     .114647632677D-09  .100000000000D+01  .198500000000D+04  .000000000000D+00
     .240000000000D+01  .000000000000D+00 -.107102096081D-07  .140000000000D+02
     .532656000000D+06  .400000000000D+01
19 18  1 27  3 59 44.0 -.461104791611D-03  .238742359215D-11  .000000000000D+00
     .150000000000D+02 -.105687500000D+03  .421124684391D-08 -.534262081543D+00
    -.534392893314D-05  .971714896150D-02  .718049705029D-05  .515370005798D+04
     .532784000000D+06 -.409781932831D-07 -.145157948400D+01  .119209289551D-06
     .979103244289D+00  .251593750000D+03  .111567661531D+01 -.820427031222D-08
    -.218223375594D-09  .100000000000D+01  .198500000000D+04  .000000000000D+00
     .240000000000D+01  .000000000000D+00 -.153668224812D-07  .150000000000D+02
     .532656000000D+06  .400000000000D+01
 1 18  1 27  5 59 44.0 -.255908817053D-04 -.193267624127D-11  .000000000000D+00
     .240000000000D+02 -.415312500000D+02  .426160608443D-08  .167855751162D+01
    -.209175050259D-05  .729336752556D-02  .104885548353D-04  .515367981529D+04
     .539984000000D+06 -.178813934326D-06 -.495297812948D+00  .819563865662D-07
     .970208092330D+00  .183656250000D+03  .617253702134D+00 -.790675791963D-08
     .241795786051D-09  .100000000000D+01  .198500000000D+04  .000000000000D+00
     .240000000000D+01  .000000000000D+00  .558793544769D-08  .240000000000D+02
     .532806000000D+06  .400000000000D+01
15 18  1 27  5 59 44.0 -.357250217348D-03  .113686837722D-12  .000000000000D+00
     .180000000000D+02 -.185625000000D+02  .536022327481D-08  .300803290990D+01
    -.102259218693D-05  .101428361377D-01  .856071710587D-05  .515367731285D+04
     .539984000000D+06  .186264514923D-07  .151396658077D+01 -.134110450745D-06
     .928084842322D+00  .197062500000D+03  .664435994963D+00 -.825998691875D-08
    -.444661379074D-09  .100000000000D+01  .198500000000D+04  .000000000000D+00
     .240000000000D+01  .000000000000D+00 -.107102096081D-07  .180000000000D+02
     .532806000000D+06  .400000000000D+01
16 18  1 27  5 59 44.0  .333832576871D-04 -.682121026330D-12  .000000000000D+00
     .150000000000D+02  .415000000000D+02  .409909931537D-08 -.150089394335D+01
     .199861824512D-05  .976501381956D-02  .273436307907D-05  .515357472992D+04
     .539984000000D+06  .119209289551D-06 -.251496247750D+01 -.949949026108D-07
     .988225863917D+00  .335531250000D+03  .459456466297D+00 -.807676500111D-08
     .240724312848D-09  .100000000000D+01  .198500000000D+04  .000000000000D+00
     .240000000000D+01  .000000000000D+00 -.107102096081D-07  .150000000000D+02
     .532806000000D+06  .400000000000D+01
19 18  1 27  5 59 44.0 -.461087562144D-03  .238742359215D-11  .000000000000D+00
     .160000000000D+02 -.978437500000D+02  .418124559423D-08  .515930862203D+00
    -.496953725815D-05  .971804361325D-02  .726431608200D-05  .515370176506D+04
     .539984000000D+06 -.987201929092D-07 -.145163828599D+01  .689178705215D-07
     .979101594117D+00  .251218750000D+03  .111564506456D+01 -.818784105645D-08
    -.266082511976D-09  .100000000000D+01  .198500000000D+04  .000000000000D+00
     .240000000000D+01  .000000000000D+00 -.153668224812D-07  .160000000000D+02
     .532806000000D+06  .400000000000D+01
29 18  1 27  5 59 44.0  .505294650793D-03 -.545696821064D-11  .000000000000D+00
     .150000000000D+02 -.110750000000D+03  .413624371972D-08 -.973940171900D+00
    -.566802918911D-05  .462918658741D-03  .609830021858D-05  .515375008392D+04
     .539984000000D+06  .484287738800D-07 -.148847859357D+01  .931322574615D-08
     .982892349869D+00  .276812500000D+03  .719538052288D+00 -.803819196582D-08
    -.196436753808D-09  .100000000000D+01  .198500000000D+04  .000000000000D+00
     .240000000000D+01  .000000000000D+00 -.102445483208D-07  .150000000000D+02
     .532806000000D+06  .400000000000D+01
 2 18  1 27  6  0  0.0  .217106193304D-03 -.104591890704D-10  .000000000000D+00
     .130000000000D+02 -.631875000000D+02  .455340395327D-08  .207820118247D+01
    -.352971255779D-05  .176920715021D-01  .110734254122D-04  .515367375565D+04
     .540000000000D+06  .633299350739D-07 -.553863330288D+00 -.340864062309D-06
     .949202140868D+00  .156718750000D+03 -.190559704909D+01 -.784032658107D-08
     .302155443130D-09  .100000000000D+01  .198500000000D+04  .000000000000D+00
     .240000000000D+01  .000000000000D+00 -.204890966415D-07  .130000000000D+02
     .532806000000D+06  .400000000000D+01
 3 18  1 27  6  0  0.0 -.248337164521D-05  .704858393874D-11  .000000000000D+00
     .190000000000D+02  .000000000000D+00  .485627371186D-08  .712109354282D+00
    -.409781932831D-07  .117685936857D-02  .662170350552D-05  .515356506157D+04
     .540000000000D+06  .335276126862D-07  .547029261667D+00  .186264514923D-08
     .960772144908D+00  .250406250000D+03  .526272322269D+00 -.821212778237D-08
     .150006248362D-09  .100000000000D+01  .198500000000D+04  .000000000000D+00
     .240000000000D+01  .000000000000D+00  .232830643654D-08  .190000000000D+02
     .532806000000D+06  .400000000000D+01
 4 18  1 27  6  0  0.0  .345804728568D-04  .216004991671D-11  .000000000000D+00
     .800000000000D+01  .565000000000D+02  .558844706697D-08 -.118854407037D+01
     .306405127048D-05  .944749289192D-02  .299513339996D-05  .515367000008D+04
     .540000000000D+06  .201165676117D-06 -.256772879447D+01  .154599547386D-06
     .980352504645D+00  .329687500000D+03  .893022751171D+00 -.822105672573D-08
     .147148986489D-09  .100000000000D+01  .198500000000D+04  .000000000000D+00
     .240000000000D+01  .630000000000D+02 -.195577740669D-07  .800000000000D+01
     .532806000000D+06  .400000000000D+01
 5 18  1 27  6  0  0.0 -.158790498972D-04  .102318153949D-11  .000000000000D+00
     .280000000000D+02  .156250000000D+01  .510092675979D-08 -.163652736611D+01
     .745058059692D-07  .527655077167D-02  .674650073051D-05  .515362351799D+04
     .540000000000D+06  .614672899246D-07  .526858095149D+00 -.838190317154D-07
     .947695967227D+00  .242250000000D+03  .627365731295D+00 -.824320050525D-08
     .221080637467D-09  .100000000000D+01  .198500000000D+04  .000000000000D+00
     .240000000000D+01  .000000000000D+00 -.107102096081D-07  .280000000000D+02
     .532806000000D+06  .400000000000D+01
 6 18  1 27  6  0  0.0  .414868351072D-03  .000000000000D+00  .000000000000D+00
     .580000000000D+02 -.449375000000D+02  .418267422517D-08  .193596352285D+01
    -.232085585594D-05  .102550559677D-02  .107325613499D-04  .515356561852D+04
     .540000000000D+06  .372529029846D-08 -.503630208117D+00  .186264514923D-07
     .969941165371D+00  .174093750000D+03 -.125076212404D+01 -.782746890264D-08
     .297512392585D-09  .100000000000D+01  .198500000000D+04  .000000000000D+00
     .240000000000D+01  .000000000000D+00  .465661287308D-08  .580000000000D+02
     .532806000000D+06  .400000000000D+01
